DIRECTV 11              
1 32729U 08013A   26063.18586576 -.00000138  00000+0  00000+0 0  9999
2 32729   0.0179 324.7273 0000293  11.5203 153.3998  1.00271748 44541
GALAXY 18 (G-18)        
1 32951U 08024A   26063.13260757  .00000000  00000+0  00000+0 0  9990
2 32951   0.0239 163.5619 0003185 203.2272  79.8507  1.00270769 44794
INTELSAT 25 (IS-25)     
1 33153U 08034A   26063.15072098 -.00000236  00000+0  00000+0 0  9999
2 33153   2.4368  81.6226 0003763 244.3027 218.7221  1.00270469 64648
GALAXY 19 (G-19)        
1 33376U 08045A   26063.18586576 -.00000151  00000+0  00000+0 0  9998
2 33376   0.0500 265.0727 0003126  91.3335 135.4222  1.00271869 63859
FM-5                    
1 35493U 09034A   26063.17405784 -.00000212  00000+0  00000+0 0  9997
2 35493   0.0402 274.4593 0000874 318.2450 265.7065  1.00270259 45598
INTELSAT 14 (IS-14)     
1 36097U 09064A   26063.08030776 -.00000286  00000+0  00000+0 0  9997
2 36097   0.0195  94.3366 0002592 263.7312 147.6629  1.00271364 59558
INTELSAT 15 (IS-15)     
1 36106U 09067A   26063.10253411 -.00000197  00000+0  00000+0 0  9998
2 36106   0.0155 227.9347 0002396 125.2874 290.6758  1.00270085 40174
DIRECTV 12              
1 36131U 09075A   26063.13668093 -.00000116  00000+0  00000+0 0  9995
2 36131   0.0187 330.2938 0000345  34.9528 103.1258  1.00271958 45500
INTELSAT 16 (IS-16)     
1 36397U 10006A   26063.16850294  .00000000  00000+0  00000+0 0  9995
2 36397   0.0244 131.3593 0002043 226.1927 148.8417  1.00268028 58602
XM-5                    
1 37185U 10053A   26063.13416757 -.00000035  00000+0  00000+0 0  9991
2 37185   0.0677 274.6764 0003252 253.2316 287.0603  1.00270096 56424
INTELSAT 17 (IS-17)     
1 37238U 10065B   26063.09872076 -.00000014  00000+0  00000+0 0  9995
2 37238   0.0216 200.7249 0002368 147.3293 275.3157  1.00271651 52196
INTELSAT 28 (IS-28)     
1 37392U 11016A   26063.15072098 -.00000237  00000+0  00000+0 0  9993
2 37392   1.5347  83.9878 0004667 257.8670 202.5936  1.00272478 52237
INTELSAT 18 (IS-18)     
1 37834U 11056A   26063.12134086  .00000040  00000+0  00000+0 0  9992
2 37834   0.0350 264.7020 0001956  74.3978  46.4267  1.00272182 52756
INTELSAT 22 (IS-22)     
1 38098U 12011A   26063.09993409 -.00000072  00000+0  00000+0 0  9991
2 38098   0.0198 225.4377 0001584 139.3857 265.1124  1.00273650  6137
INTELSAT 19 (IS-19)     
1 38356U 12030A   26063.11839419  .00000000  00000+0  00000+0 0  9992
2 38356   0.0252 149.9211 0003140 210.3532  10.2383  1.00270085 49392
INTELSAT 20 (IS-20)     
1 38740U 12043A   26063.09924076 -.00000037  00000+0  00000+0 0  9995
2 38740   0.0202 133.9927 0002530  32.1653  99.9085  1.00270989 49696
INTELSAT 21 (IS-21)     
1 38749U 12045A   26063.15044814 -.00000297  00000+0  00000+0 0  9994
2 38749   0.0358 264.1524 0001780  84.9537 168.9512  1.00270810 49470
