[{"OBJECT_NAME":"DIRECTV 11","OBJECT_ID":"2008-013A","EPOCH":"2026-03-04T04:27:38.801664","MEAN_MOTION":1.00271748,"ECCENTRICITY":2.93e-5,"INCLINATION":0.0179,"RA_OF_ASC_NODE":324.7273,"ARG_OF_PERICENTER":11.5203,"MEAN_ANOMALY":153.3998,"EPHEMERIS_TYPE":0,"CLASSIFICATION_TYPE":"U","NORAD_CAT_ID":32729,"ELEMENT_SET_NO":999,"REV_AT_EPOCH":4454,"BSTAR":0,"MEAN_MOTION_DOT":-1.38e-6,"MEAN_MOTION_DDOT":0},{"OBJECT_NAME":"GALAXY 18 (G-18)","OBJECT_ID":"2008-024A","EPOCH":"2026-03-04T03:10:57.294048","MEAN_MOTION":1.00270769,"ECCENTRICITY":0.0003185,"INCLINATION":0.0239,"RA_OF_ASC_NODE":163.5619,"ARG_OF_PERICENTER":203.2272,"MEAN_ANOMALY":79.8507,"EPHEMERIS_TYPE":0,"CLASSIFICATION_TYPE":"U","NORAD_CAT_ID":32951,"ELEMENT_SET_NO":999,"REV_AT_EPOCH":4479,"BSTAR":0,"MEAN_MOTION_DOT":0,"MEAN_MOTION_DDOT":0},{"OBJECT_NAME":"INTELSAT 25 (IS-25)","OBJECT_ID":"2008-034A","EPOCH":"2026-03-04T03:37:02.292672","MEAN_MOTION":1.00270469,"ECCENTRICITY":0.0003763,"INCLINATION":2.4368,"RA_OF_ASC_NODE":81.6226,"ARG_OF_PERICENTER":244.3027,"MEAN_ANOMALY":218.7221,"EPHEMERIS_TYPE":0,"CLASSIFICATION_TYPE":"U","NORAD_CAT_ID":33153,"ELEMENT_SET_NO":999,"REV_AT_EPOCH":6464,"BSTAR":0,"MEAN_MOTION_DOT":-2.36e-6,"MEAN_MOTION_DDOT":0},{"OBJECT_NAME":"GALAXY 19 (G-19)","OBJECT_ID":"2008-045A","EPOCH":"2026-03-04T04:27:38.801664","MEAN_MOTION":1.00271869,"ECCENTRICITY":0.0003126,"INCLINATION":0.05,"RA_OF_ASC_NODE":265.0727,"ARG_OF_PERICENTER":91.3335,"MEAN_ANOMALY":135.4222,"EPHEMERIS_TYPE":0,"CLASSIFICATION_TYPE":"U","NORAD_CAT_ID":33376,"ELEMENT_SET_NO":999,"REV_AT_EPOCH":6385,"BSTAR":0,"MEAN_MOTION_DOT":-1.51e-6,"MEAN_MOTION_DDOT":0},{"OBJECT_NAME":"FM-5","OBJECT_ID":"2009-034A","EPOCH":"2026-03-04T04:10:38.597376","MEAN_MOTION":1.00270259,"ECCENTRICITY":8.74e-5,"INCLINATION":0.0402,"RA_OF_ASC_NODE":274.4593,"ARG_OF_PERICENTER":318.245,"MEAN_ANOMALY":265.7065,"EPHEMERIS_TYPE":0,"CLASSIFICATION_TYPE":"U","NORAD_CAT_ID":35493,"ELEMENT_SET_NO":999,"REV_AT_EPOCH":4559,"BSTAR":0,"MEAN_MOTION_DOT":-2.12e-6,"MEAN_MOTION_DDOT":0},{"OBJECT_NAME":"INTELSAT 14 (IS-14)","OBJECT_ID":"2009-064A","EPOCH":"2026-03-04T01:55:38.590464","MEAN_MOTION":1.00271364,"ECCENTRICITY":0.0002592,"INCLINATION":0.0195,"RA_OF_ASC_NODE":94.3366,"ARG_OF_PERICENTER":263.7312,"MEAN_ANOMALY":147.6629,"EPHEMERIS_TYPE":0,"CLASSIFICATION_TYPE":"U","NORAD_CAT_ID":36097,"ELEMENT_SET_NO":999,"REV_AT_EPOCH":5955,"BSTAR":0,"MEAN_MOTION_DOT":-2.86e-6,"MEAN_MOTION_DDOT":0},{"OBJECT_NAME":"INTELSAT 15 (IS-15)","OBJECT_ID":"2009-067A","EPOCH":"2026-03-04T02:27:38.947104","MEAN_MOTION":1.00270085,"ECCENTRICITY":0.0002396,"INCLINATION":0.0155,"RA_OF_ASC_NODE":227.9347,"ARG_OF_PERICENTER":125.2874,"MEAN_ANOMALY":290.6758,"EPHEMERIS_TYPE":0,"CLASSIFICATION_TYPE":"U","NORAD_CAT_ID":36106,"ELEMENT_SET_NO":999,"REV_AT_EPOCH":4017,"BSTAR":0,"MEAN_MOTION_DOT":-1.97e-6,"MEAN_MOTION_DDOT":0},{"OBJECT_NAME":"DIRECTV 12","OBJECT_ID":"2009-075A","EPOCH":"2026-03-04T03:16:49.232352","MEAN_MOTION":1.00271958,"ECCENTRICITY":3.45e-5,"INCLINATION":0.0187,"RA_OF_ASC_NODE":330.2938,"ARG_OF_PERICENTER":34.9528,"MEAN_ANOMALY":103.1258,"EPHEMERIS_TYPE":0,"CLASSIFICATION_TYPE":"U","NORAD_CAT_ID":36131,"ELEMENT_SET_NO":999,"REV_AT_EPOCH":4550,"BSTAR":0,"MEAN_MOTION_DOT":-1.16e-6,"MEAN_MOTION_DDOT":0},{"OBJECT_NAME":"INTELSAT 16 (IS-16)","OBJECT_ID":"2010-006A","EPOCH":"2026-03-04T04:02:38.654016","MEAN_MOTION":1.00268028,"ECCENTRICITY":0.0002043,"INCLINATION":0.0244,"RA_OF_ASC_NODE":131.3593,"ARG_OF_PERICENTER":226.1927,"MEAN_ANOMALY":148.8417,"EPHEMERIS_TYPE":0,"CLASSIFICATION_TYPE":"U","NORAD_CAT_ID":36397,"ELEMENT_SET_NO":999,"REV_AT_EPOCH":5860,"BSTAR":0,"MEAN_MOTION_DOT":0,"MEAN_MOTION_DDOT":0},{"OBJECT_NAME":"XM-5","OBJECT_ID":"2010-053A","EPOCH":"2026-03-04T03:13:12.078048","MEAN_MOTION":1.00270096,"ECCENTRICITY":0.0003252,"INCLINATION":0.0677,"RA_OF_ASC_NODE":274.6764,"ARG_OF_PERICENTER":253.2316,"MEAN_ANOMALY":287.0603,"EPHEMERIS_TYPE":0,"CLASSIFICATION_TYPE":"U","NORAD_CAT_ID":37185,"ELEMENT_SET_NO":999,"REV_AT_EPOCH":5642,"BSTAR":0,"MEAN_MOTION_DOT":-3.5e-7,"MEAN_MOTION_DDOT":0},{"OBJECT_NAME":"INTELSAT 17 (IS-17)","OBJECT_ID":"2010-065B","EPOCH":"2026-03-04T02:22:09.473664","MEAN_MOTION":1.00271651,"ECCENTRICITY":0.0002368,"INCLINATION":0.0216,"RA_OF_ASC_NODE":200.7249,"ARG_OF_PERICENTER":147.3293,"MEAN_ANOMALY":275.3157,"EPHEMERIS_TYPE":0,"CLASSIFICATION_TYPE":"U","NORAD_CAT_ID":37238,"ELEMENT_SET_NO":999,"REV_AT_EPOCH":5219,"BSTAR":0,"MEAN_MOTION_DOT":-1.4e-7,"MEAN_MOTION_DDOT":0},{"OBJECT_NAME":"INTELSAT 28 (IS-28)","OBJECT_ID":"2011-016A","EPOCH":"2026-03-04T03:37:02.292672","MEAN_MOTION":1.00272478,"ECCENTRICITY":0.0004667,"INCLINATION":1.5347,"RA_OF_ASC_NODE":83.9878,"ARG_OF_PERICENTER":257.867,"MEAN_ANOMALY":202.5936,"EPHEMERIS_TYPE":0,"CLASSIFICATION_TYPE":"U","NORAD_CAT_ID":37392,"ELEMENT_SET_NO":999,"REV_AT_EPOCH":5223,"BSTAR":0,"MEAN_MOTION_DOT":-2.37e-6,"MEAN_MOTION_DDOT":0},{"OBJECT_NAME":"INTELSAT 18 (IS-18)","OBJECT_ID":"2011-056A","EPOCH":"2026-03-04T02:54:43.850304","MEAN_MOTION":1.00272182,"ECCENTRICITY":0.0001956,"INCLINATION":0.035,"RA_OF_ASC_NODE":264.702,"ARG_OF_PERICENTER":74.3978,"MEAN_ANOMALY":46.4267,"EPHEMERIS_TYPE":0,"CLASSIFICATION_TYPE":"U","NORAD_CAT_ID":37834,"ELEMENT_SET_NO":999,"REV_AT_EPOCH":5275,"BSTAR":0,"MEAN_MOTION_DOT":4.0e-7,"MEAN_MOTION_DDOT":0},{"OBJECT_NAME":"INTELSAT 22 (IS-22)","OBJECT_ID":"2012-011A","EPOCH":"2026-03-04T02:23:54.305376","MEAN_MOTION":1.0027365,"ECCENTRICITY":0.0001584,"INCLINATION":0.0198,"RA_OF_ASC_NODE":225.4377,"ARG_OF_PERICENTER":139.3857,"MEAN_ANOMALY":265.1124,"EPHEMERIS_TYPE":0,"CLASSIFICATION_TYPE":"U","NORAD_CAT_ID":38098,"ELEMENT_SET_NO":999,"REV_AT_EPOCH":613,"BSTAR":0,"MEAN_MOTION_DOT":-7.2e-7,"MEAN_MOTION_DDOT":0},{"OBJECT_NAME":"INTELSAT 19 (IS-19)","OBJECT_ID":"2012-030A","EPOCH":"2026-03-04T02:50:29.258016","MEAN_MOTION":1.00270085,"ECCENTRICITY":0.000314,"INCLINATION":0.0252,"RA_OF_ASC_NODE":149.9211,"ARG_OF_PERICENTER":210.3532,"MEAN_ANOMALY":10.2383,"EPHEMERIS_TYPE":0,"CLASSIFICATION_TYPE":"U","NORAD_CAT_ID":38356,"ELEMENT_SET_NO":999,"REV_AT_EPOCH":4939,"BSTAR":0,"MEAN_MOTION_DOT":0,"MEAN_MOTION_DDOT":0},{"OBJECT_NAME":"INTELSAT 20 (IS-20)","OBJECT_ID":"2012-043A","EPOCH":"2026-03-04T02:22:54.401664","MEAN_MOTION":1.00270989,"ECCENTRICITY":0.000253,"INCLINATION":0.0202,"RA_OF_ASC_NODE":133.9927,"ARG_OF_PERICENTER":32.1653,"MEAN_ANOMALY":99.9085,"EPHEMERIS_TYPE":0,"CLASSIFICATION_TYPE":"U","NORAD_CAT_ID":38740,"ELEMENT_SET_NO":999,"REV_AT_EPOCH":4969,"BSTAR":0,"MEAN_MOTION_DOT":-3.7e-7,"MEAN_MOTION_DDOT":0},{"OBJECT_NAME":"INTELSAT 21 (IS-21)","OBJECT_ID":"2012-045A","EPOCH":"2026-03-04T03:36:38.719296","MEAN_MOTION":1.0027081,"ECCENTRICITY":0.000178,"INCLINATION":0.0358,"RA_OF_ASC_NODE":264.1524,"ARG_OF_PERICENTER":84.9537,"MEAN_ANOMALY":168.9512,"EPHEMERIS_TYPE":0,"CLASSIFICATION_TYPE":"U","NORAD_CAT_ID":38749,"ELEMENT_SET_NO":999,"REV_AT_EPOCH":4947,"BSTAR":0,"MEAN_MOTION_DOT":-2.97e-6,"MEAN_MOTION_DDOT":0}]
